{
  "type": "FeatureCollection",
  "features": [
    {
      "type": "Feature",
      "properties": {
        "norad_id": 34726,
        "name": "COSMOS 2251 DEB",
        "group": "cosmos-2251-debris",
        "lat": 28.980655151090602,
        "lon": -18.138172369320845,
        "alt_km": 693.3878149035954,
        "timestamp": "2025-12-19T20:43:00.480878+00:00",
        "meta_object_name": "COSMOS 2251 DEB",
        "meta_object_id": "1993-036YU",
        "meta_epoch": "2025-12-19T02:28:57.057888",
        "meta_mean_motion": 14.59505488,
        "meta_eccentricity": 0.00417734,
        "meta_inclination": 74.0287,
        "meta_ra_of_asc_node": 334.1835,
        "meta_arg_of_pericenter": 122.8952,
        "meta_mean_anomaly": 237.6244,
        "meta_ephemeris_type": 0,
        "meta_classification_type": "U",
        "meta_norad_cat_id": 34726,
        "meta_element_set_no": 999,
        "meta_rev_at_epoch": 88595,
        "meta_bstar": 0.00031674221,
        "meta_mean_motion_dot": 1.492e-05,
        "meta_mean_motion_ddot": 0,
        "tle_line1": "1 34726U 93036YU  25353.10343817  .00001492  00000+0  31674-3 0  9997",
        "tle_line2": "2 34726  74.0287 334.1835 0041773 122.8952 237.6244 14.59505488885952"
      },
      "geometry": {
        "type": "Point",
        "coordinates": [
          -18.138172369320845,
          28.980655151090602
        ]
      }
    },
    {
      "type": "Feature",
      "properties": {
        "norad_id": 34728,
        "name": "COSMOS 2251 DEB",
        "group": "cosmos-2251-debris",
        "lat": -19.92197555385075,
        "lon": 63.88675917129702,
        "alt_km": 691.3324783678336,
        "timestamp": "2025-12-19T20:43:00.480888+00:00",
        "meta_object_name": "COSMOS 2251 DEB",
        "meta_object_id": "1993-036YW",
        "meta_epoch": "2025-12-18T03:00:03.805056",
        "meta_mean_motion": 14.70894267,
        "meta_eccentricity": 0.00413053,
        "meta_inclination": 74.0168,
        "meta_ra_of_asc_node": 241.3015,
        "meta_arg_of_pericenter": 37.4536,
        "meta_mean_anomaly": 322.9501,
        "meta_ephemeris_type": 0,
        "meta_classification_type": "U",
        "meta_norad_cat_id": 34728,
        "meta_element_set_no": 999,
        "meta_rev_at_epoch": 88879,
        "meta_bstar": 0.00053505994,
        "meta_mean_motion_dot": 3.287e-05,
        "meta_mean_motion_ddot": 0,
        "tle_line1": "1 34728U 93036YW  25352.12504404  .00003287  00000+0  53506-3 0  9993",
        "tle_line2": "2 34728  74.0168 241.3015 0041305  37.4536 322.9501 14.70894267888799"
      },
      "geometry": {
        "type": "Point",
        "coordinates": [
          63.88675917129702,
          -19.92197555385075
        ]
      }
    },
    {
      "type": "Feature",
      "properties": {
        "norad_id": 34729,
        "name": "COSMOS 2251 DEB",
        "group": "cosmos-2251-debris",
        "lat": 16.968969813372386,
        "lon": 159.3009714397193,
        "alt_km": 616.3388071721529,
        "timestamp": "2025-12-19T20:43:00.480904+00:00",
        "meta_object_name": "COSMOS 2251 DEB",
        "meta_object_id": "1993-036YX",
        "meta_epoch": "2025-12-19T00:48:49.832640",
        "meta_mean_motion": 14.82967406,
        "meta_eccentricity": 0.00118304,
        "meta_inclination": 74.0176,
        "meta_ra_of_asc_node": 345.9604,
        "meta_arg_of_pericenter": 101.2732,
        "meta_mean_anomaly": 315.3362,
        "meta_ephemeris_type": 0,
        "meta_classification_type": "U",
        "meta_norad_cat_id": 34729,
        "meta_element_set_no": 999,
        "meta_rev_at_epoch": 88551,
        "meta_bstar": 0.0013666661,
        "meta_mean_motion_dot": 0.00011097,
        "meta_mean_motion_ddot": 0,
        "tle_line1": "1 34729U 93036YX  25353.03391010  .00011097  00000+0  13667-2 0  9993",
        "tle_line2": "2 34729  74.0176 345.9604 0011830 101.2732 315.3362 14.82967406885519"
      },
      "geometry": {
        "type": "Point",
        "coordinates": [
          159.3009714397193,
          16.968969813372386
        ]
      }
    },
    {
      "type": "Feature",
      "properties": {
        "norad_id": 34732,
        "name": "COSMOS 2251 DEB",
        "group": "cosmos-2251-debris",
        "lat": -15.291116560431623,
        "lon": -95.63791965419246,
        "alt_km": 714.954107148108,
        "timestamp": "2025-12-19T20:43:00.480914+00:00",
        "meta_object_name": "COSMOS 2251 DEB",
        "meta_object_id": "1993-036ZA",
        "meta_epoch": "2025-12-18T12:21:42.892128",
        "meta_mean_motion": 14.47307278,
        "meta_eccentricity": 0.00402855,
        "meta_inclination": 74.0458,
        "meta_ra_of_asc_node": 82.3944,
        "meta_arg_of_pericenter": 232.3411,
        "meta_mean_anomaly": 142.4547,
        "meta_ephemeris_type": 0,
        "meta_classification_type": "U",
        "meta_norad_cat_id": 34732,
        "meta_element_set_no": 999,
        "meta_rev_at_epoch": 88227,
        "meta_bstar": 0.00011313876,
        "meta_mean_motion_dot": 3.9e-06,
        "meta_mean_motion_ddot": 0,
        "tle_line1": "1 34732U 93036ZA  25352.51507977  .00000390  00000+0  11314-3 0  9992",
        "tle_line2": "2 34732  74.0458  82.3944 0040285 232.3411 142.4547 14.47307278882271"
      },
      "geometry": {
        "type": "Point",
        "coordinates": [
          -95.63791965419246,
          -15.291116560431623
        ]
      }
    },
    {
      "type": "Feature",
      "properties": {
        "norad_id": 34736,
        "name": "COSMOS 2251 DEB",
        "group": "cosmos-2251-debris",
        "lat": 73.90429668264805,
        "lon": 116.55193459093593,
        "alt_km": 402.84058095856653,
        "timestamp": "2025-12-19T20:43:00.480925+00:00",
        "meta_object_name": "COSMOS 2251 DEB",
        "meta_object_id": "1993-036ZE",
        "meta_epoch": "2025-12-19T03:19:13.149696",
        "meta_mean_motion": 15.52991061,
        "meta_eccentricity": 0.00153362,
        "meta_inclination": 73.9989,
        "meta_ra_of_asc_node": 22.1508,
        "meta_arg_of_pericenter": 341.5315,
        "meta_mean_anomaly": 18.534,
        "meta_ephemeris_type": 0,
        "meta_classification_type": "U",
        "meta_norad_cat_id": 34736,
        "meta_element_set_no": 999,
        "meta_rev_at_epoch": 88547,
        "meta_bstar": 0.0062574142,
        "meta_mean_motion_dot": 0.00412854,
        "meta_mean_motion_ddot": 0,
        "tle_line1": "1 34736U 93036ZE  25353.13834664  .00412854  00000+0  62574-2 0  9996",
        "tle_line2": "2 34736  73.9989  22.1508 0015336 341.5315  18.5340 15.52991061885470"
      },
      "geometry": {
        "type": "Point",
        "coordinates": [
          116.55193459093593,
          73.90429668264805
        ]
      }
    },
    {
      "type": "Feature",
      "properties": {
        "norad_id": 34738,
        "name": "COSMOS 2251 DEB",
        "group": "cosmos-2251-debris",
        "lat": -21.55951890819584,
        "lon": -43.54424494889704,
        "alt_km": 732.3505799485856,
        "timestamp": "2025-12-19T20:43:00.480935+00:00",
        "meta_object_name": "COSMOS 2251 DEB",
        "meta_object_id": "1993-036ZG",
        "meta_epoch": "2025-12-19T03:59:55.248288",
        "meta_mean_motion": 14.46316741,
        "meta_eccentricity": 0.00475137,
        "meta_inclination": 74.0153,
        "meta_ra_of_asc_node": 131.2542,
        "meta_arg_of_pericenter": 276.3507,
        "meta_mean_anomaly": 261.0452,
        "meta_ephemeris_type": 0,
        "meta_classification_type": "U",
        "meta_norad_cat_id": 34738,
        "meta_element_set_no": 999,
        "meta_rev_at_epoch": 87951,
        "meta_bstar": 0.00025081452,
        "meta_mean_motion_dot": 8.84e-06,
        "meta_mean_motion_ddot": 0,
        "tle_line1": "1 34738U 93036ZG  25353.16661167  .00000884  00000+0  25081-3 0  9996",
        "tle_line2": "2 34738  74.0153 131.2542 0047513 276.3507 261.0452 14.46316741879512"
      },
      "geometry": {
        "type": "Point",
        "coordinates": [
          -43.54424494889704,
          -21.55951890819584
        ]
      }
    },
    {
      "type": "Feature",
      "properties": {
        "norad_id": 34750,
        "name": "COSMOS 2251 DEB",
        "group": "cosmos-2251-debris",
        "lat": 24.485662407421337,
        "lon": -164.35448977415874,
        "alt_km": 698.4156165063177,
        "timestamp": "2025-12-19T20:43:00.480945+00:00",
        "meta_object_name": "COSMOS 2251 DEB",
        "meta_object_id": "1993-036ZU",
        "meta_epoch": "2025-12-18T13:31:33.744864",
        "meta_mean_motion": 14.61376682,
        "meta_eccentricity": 0.00385835,
        "meta_inclination": 74.1065,
        "meta_ra_of_asc_node": 190.6634,
        "meta_arg_of_pericenter": 141.774,
        "meta_mean_anomaly": 249.8498,
        "meta_ephemeris_type": 0,
        "meta_classification_type": "U",
        "meta_norad_cat_id": 34750,
        "meta_element_set_no": 999,
        "meta_rev_at_epoch": 88316,
        "meta_bstar": 0.00078331421,
        "meta_mean_motion_dot": 3.887e-05,
        "meta_mean_motion_ddot": 0,
        "tle_line1": "1 34750U 93036ZU  25352.56358501  .00003887  00000+0  78331-3 0  9990",
        "tle_line2": "2 34750  74.1065 190.6634 0038583 141.7740 249.8498 14.61376682883168"
      },
      "geometry": {
        "type": "Point",
        "coordinates": [
          -164.35448977415874,
          24.485662407421337
        ]
      }
    }
  ]
}